#dP2025  2  4  0  0  0.00000000      96 __u+U IGS20 FIT  IAC
## 2352 172800.00000000   900.00000000 60710 0.0000000000000
+   53   G01G02G03G04G05G06G07G08G09G10G11G12G13G14G15G16G17
+        G18G19G20G21G22G23G24G25G26G27G28G29G30G31G32R01R02
+        R03R04R05R07R08R09R11R12R14R15R16R17R18R19R20R21R22
+        R24R26  0  0  0  0  0  0  0  0  0  0  0  0  0  0  0
+          0  0  0  0  0  0  0  0  0  0  0  0  0  0  0  0  0
++         6  6  6  6  6  5  5  5  6  5  6  5  6  6  5  5  5
++         7  5  6  6  6  5  5  5  6  5  5  6  6  5  7  6  6
++         5  5  7  5  6  6  6  6  6  5  6  6  6  0  8  6  8
++         7  7  0  0  0  0  0  0  0  0  0  0  0  0  0  0  0
++         0  0  0  0  0  0  0  0  0  0  0  0  0  0  0  0  0
%c M  cc GPS ccc cccc cccc cccc cccc ccccc ccccc ccccc ccccc
%c cc cc ccc ccc cccc cccc cccc cccc ccccc ccccc ccccc ccccc
%f  0.0000000  0.000000000  0.00000000000  0.000000000000000
%f  0.0000000  0.000000000  0.00000000000  0.000000000000000
%i    0    0    0    0      0      0      0      0         0
%i    0    0    0    0      0      0      0      0         0
/* INFORMATION & ANALYSIS CENTER (IAC)      ULTRA-RAPID DATA
/* S/V CLOCKS ARE ALIGNED TO GNSS TIME                      
/* G:C1WC2W R:C1PC2P E:C1XC5X C:C2IC6I J:C1CC2S             
/* PCV:IGS20_2350 OL/AL:FES2004  NONE     YN ORB:CoN CLK:CoN
*  2025 02 04 20  0  0.00000000
PG01  14645.721515 -13473.946850  17590.614544     99.426015
PG02  13777.380189 -11284.338112  20033.398173   -250.999924
PG03  23287.501539 -12467.280977  -2229.122618    658.319854
PG04  15596.116004  -6114.530031 -20625.108332    522.388062
PG05 -23644.317384   3539.337296 -11816.778203   -201.027041
PG06  -6633.626695 -21880.044048 -13336.767041   -165.891592
PG07   6466.833713 -24597.110998  -6255.887034    -13.535006
PG08  22651.761853   2624.726877  13853.857396    474.284894
PG09   6447.570035 -13943.815960 -21753.612056    555.074618
PG10   4069.662460  14292.731603  22228.644602   -305.324090
PG11 -12504.790425 -11953.110319 -20128.953467   -748.997693
PG12 -24612.311559   9924.529355   -360.282334   -568.391225
PG13 -21905.779895 -12578.753036   8364.996106    695.531938
PG14    -99.002171 -16493.631812  20822.075391    592.706539
PG15 -22451.827593    485.857967  13767.093436    259.694945
PG16  21661.042865   3607.427837 -15614.308952    -60.942931
PG17  -7638.131417 -20014.581780  15965.968925    441.569200
PG18  -5690.667490  25396.357590  -4619.947276   -654.819802
PG19 -16298.419785 -20118.735184   6746.806176    594.282865
PG20 -16655.785488  -5273.646862 -19881.333724    366.541874
PG21  15233.432669  -2796.410726  21845.514995    101.887245
PG22  -7652.077593 -13540.601054  21889.558289    -95.594679
PG23 -11166.272700  17758.523095  16194.472113    417.318040
PG24 -14375.303485   9346.714610  19715.719088   -456.034314
PG25 -16831.202505  17317.896156 -11113.896068    495.579314
PG26  13895.496130   9758.134913 -20686.303073    -77.087278
PG27  23357.427013  12419.947575   3960.690883    -32.032459
PG28   6835.964729  22979.282558 -11442.811577   -552.113367
PG29  -7635.462595  13147.062699 -21818.673668   -540.784238
PG30  -1542.219430 -25957.117705   4807.015570   -223.614351
PG31  11126.955082  16171.128207 -17972.274058   -216.282839
PG32  13687.058718  19483.952952  12215.325588   -528.279001
PR01  14828.142302  -6208.071481 -19794.852079    113.623974
PR02  -2705.238311 -11542.846870 -22525.824399    -37.747749
PR03 -19536.701097 -10916.203454 -12130.729956    116.237402
PR04 -24693.682578  -4611.906546   4415.320190    275.732398
PR05 -16869.361721   4255.204357  18659.262670    144.853784
PR07  19734.830346  10932.271373  11999.990289    100.179092
PR08  24743.872578   4287.229004  -4520.610731     -6.223486
PR09  -7727.725940  19328.910770 -14787.469002    236.092671
PR11  16475.312214  -4065.388259 -19032.409226     -6.342661
PR12  18438.837581 -17509.869993  -2092.177638     50.412974
PR14  -6308.900162  -9474.350041  22830.591306     27.705742
PR15 -17362.225937   5481.964120  17879.563509     71.512252
PR16 -18440.306386  17505.200741   2270.509900     33.047832
PR17 -10663.875187 -20562.657076 -10712.901698    163.396008
PR18 -11790.108234  -6375.765944 -21672.147373    185.404217
PR19  -8272.828671   9014.408420 -22379.040701    -39.478128
PR20   1776.844812  24250.438575  -7773.640525   -125.413518
PR21  10048.312735  21420.050193   9508.947545   -173.991226
PR22  11940.361949   5197.637983  21964.798162    -59.186648
PR24  -3062.949051 -24262.673480   7293.067971    -91.090664
PR26  24849.093564   5109.680377  -2529.948424   -131.094832
*  2025 02 04 20 15  0.00000000
PG01  14517.395193 -11373.520658  19115.767963     99.449192
PG02  13959.251204  -9020.407470  21087.594498   -250.991466
PG03  23434.318225 -12332.830440    685.070591    658.325540
PG04  17430.638229  -4733.394557 -19503.367400    522.393110
PG05 -22466.552529   2668.709168 -14142.420471   -201.028199
PG06  -6386.427134 -23263.466427 -10895.412725   -165.914503
PG07   6730.392887 -23636.498281  -8930.559823    -13.535079
PG08  23806.634971   3545.204981  11587.993904    474.291219
PG09   8564.932333 -12665.791529 -21810.698730    555.087278
PG10   1857.576879  15376.021125  21762.550624   -305.337971
PG11 -12190.408481 -14168.708021 -18851.190553   -748.995926
PG12 -24574.097247   9624.631626   2494.009986   -568.393272
PG13 -22399.766141 -13265.681291   5649.283457    695.533079
PG14   2042.618605 -17423.685631  19921.750577    592.712748
PG15 -23742.437818   -362.838067  11518.560057    259.698895
PG16  20031.468293   4421.754789 -17472.080909    -60.934640
PG17  -6036.084316 -19037.204875  17807.149678    441.552376
PG18  -5869.816453  24687.749888  -7404.285119   -654.818037
PG19 -15449.617762 -19693.217023   9383.134589    594.286738
PG20 -14851.597222  -6785.146300 -20836.548176    366.541830
PG21  15401.096940   -364.627026  22005.311271    101.887201
PG22  -5407.562801 -14473.520445  21990.772630    -95.596501
PG23 -12755.781938  18455.996023  14077.614181    417.324648
PG24 -14623.068750   6941.120709  20528.261791   -456.030130
PG25 -17917.966373  17599.904774  -8580.209671    495.578704
PG26  11922.504694  11063.021457 -21223.418159    -77.101926
PG27  23509.543634  12785.919261   1154.861814    -32.031922
PG28   6592.054021  24138.563320  -8917.880262   -552.121334
PG29  -9627.448851  11655.272628 -21889.469096   -540.781222
PG30  -1183.596773 -26319.852490   2022.787955   -223.606513
PG31  10810.473443  18080.576508 -16204.605999   -216.281938
PG32  12336.736214  18842.242847  14475.863491   -528.272107
PR01  17133.586901  -5850.408404 -17956.860632    113.625074
PR02     38.850005 -10869.011157 -23022.545990    -37.747308
PR03 -17935.862200 -10421.338470 -14749.919096    116.238302
PR04 -25069.687032  -4513.111955   1208.539397    275.733691
PR05 -19010.272117   3864.264344  16564.922501    144.853985
PR07  18171.986025  10433.338934  14629.600344    100.180174
PR08  25141.251883   4203.494418  -1326.919100     -6.222599
PR09  -8751.962956  20643.913539 -12226.742840    236.094587
PR11  14780.714383  -2294.087598 -20651.930885     -6.345593
PR12  18035.554032 -17261.485492  -5254.599767     50.413760
PR14  -4469.007148 -11561.377373  22295.454137     27.705722
PR15 -15746.928650   3820.087640  19713.859407     71.511672
PR16 -18008.090475  17255.878870   5437.372445     33.047584
PR17 -11162.734195 -21603.275239  -7753.735553    163.398231
PR18 -12596.726095  -8847.593944 -20303.903702    185.405935
PR19  -8928.932778   6283.635958 -23049.918337    -39.479383
PR20   1689.376961  23091.028626 -10746.076317   -125.412408
PR21  10504.890660  22314.536160   6470.956756   -173.994322
PR22  12678.063270   7722.761975  20776.322336    -59.188415
PR24  -2876.011411 -23189.732859  10262.014808    -91.092421
PR26  24999.147286   4970.400893    691.520437   -131.094497
EOF
